ONEWEB-0338             
1 49204U 21083U   23252.38535926  .00000052  00000+0  95070-4 0  9999
2 49204  87.9190 115.9129 0002265  85.9539 274.1854 13.20771240103256
ONEWEB-0339             
1 49205U 21083V   23252.48829427  .00000002  00000+0 -28511-4 0  9995
2 49205  87.9081 161.5015 0001986  71.6962 288.4383 13.13471840 98082
ONEWEB-0340             
1 49206U 21083W   23253.07930895  .00000047  00000+0  87404-4 0  9998
2 49206  87.9230 176.5529 0001829  71.7260 288.4071 13.18686108 98009
ONEWEB-0341             
1 49207U 21083X   23252.78421290  .00000149  00000+0  34447-3 0  9991
2 49207  87.9310 176.5557 0002424  57.3685 302.7680 13.18683652 97986
ONEWEB-0342             
1 49208U 21083Y   23252.16439809 -.00000032  00000+0 -11092-3 0  9993
2 49208  87.9184 115.9907 0001997  85.1406 274.9955 13.20770295103195
ONEWEB-0343             
1 49209U 21083Z   23253.08351654 -.00000033  00000+0 -11731-3 0  9998
2 49209  87.9299 176.5299 0002845  60.4984 299.6432 13.18684138 98071
ONEWEB-0344             
1 49210U 21083AA  23252.98660768  .00000029  00000+0  44567-4 0  9994
2 49210  87.9083 161.4088 0001659  70.6553 289.4756 13.13472397 99456
ONEWEB-0345             
1 49211U 21083AB  23252.77607043 -.00000227  00000+0 -65755-3 0  9992
2 49211  87.9080 161.4369 0001814  53.3307 306.7988 13.13471359 99439
